DMSP 5D-3 F18 (USA 210) 
1 35951U 09057A   24126.88164799  .00000430  00000+0  24896-3 0  9999
2 35951  98.8117 102.8076 0009998 290.1647  69.8450 14.14090588750382
EWS-G2 (GOES 15)        
1 36411U 10008A   24126.21021767  .00000035  00000+0  00000+0 0  9991
2 36411   0.1868  90.4993 0001328 183.7522  86.4734  1.00275350 51883
COMS 1                  
1 36744U 10032A   24126.60435814 -.00000344  00000+0  00000+0 0  9996
2 36744   2.8218  84.9666 0000823 317.9922 166.6953  1.00271593 43340
FENGYUN 3B              
1 37214U 10059A   24126.85923330  .00000157  00000+0  10569-3 0  9996
2 37214  99.0584 154.3550 0021689 209.8705 323.2388 14.14482141698264
SUOMI NPP               
1 37849U 11061A   24126.82283677  .00000139  00000+0  86534-4 0  9990
2 37849  98.7202  65.4427 0001591  69.3446 290.7901 14.19559760648853
FENGYUN 2F              
1 38049U 12002A   24126.64693985 -.00000357  00000+0  00000+0 0  9998
2 38049   5.4900  73.5393 0002190  83.3776  52.0130  1.00280363 45137
METEOSAT-10 (MSG-3)     
1 38552U 12035B   24124.63840662 -.00000008  00000+0  00000+0 0  9999
2 38552   2.8664  60.6086 0002032 296.4857  94.7831  1.00269648 43099
METOP-B                 
1 38771U 12049A   24126.87109335  .00000216  00000+0  11828-3 0  9994
2 38771  98.6302 185.0361 0001717 116.4381 243.6973 14.21520514603536
INSAT-3D                
1 39216U 13038B   24126.18799524 -.00000158  00000+0  00000+0 0  9999
2 39216   0.0147  91.9100 0001187 207.6788  73.7469  1.00269552 39323
FENGYUN 3C              
1 39260U 13052A   24126.84695677  .00000186  00000+0  11441-3 0  9996
2 39260  98.4291 128.6987 0012369  89.4220 270.8372 14.16191356549332
METEOR-M 2              
1 40069U 14037A   24126.85214346  .00000203  00000+0  11291-3 0  9993
2 40069  98.4362 122.9848 0006862 116.2364 243.9520 14.20947148509618
HIMAWARI-8              
1 40267U 14060A   24126.58938242 -.00000277  00000+0  00000+0 0  9991
2 40267   0.0330 158.3397 0001029 287.6326 130.8012  1.00272581 35019
FENGYUN 2G              
1 40367U 14090A   24126.63871686 -.00000299  00000+0  00000+0 0  9993
2 40367   3.6827  81.9969 0002556  79.7950  31.6217  1.00263336 34253
METEOSAT-11 (MSG-4)     
1 40732U 15034A   24125.93104838  .00000061  00000+0  00000+0 0  9994
2 40732   1.2836  67.9197 0001491 173.7320 326.2567  1.00265464    93
ELEKTRO-L 2             
1 41105U 15074A   24126.08938427 -.00000116  00000+0  00000+0 0  9991
2 41105   4.7332  79.9639 0001129 223.1184 298.0184  1.00269354 30756
INSAT-3DR               
1 41752U 16054A   24126.19910635 -.00000079  00000+0  00000+0 0  9999
2 41752   0.0858  90.6631 0010667 183.0850  95.4644  1.00270110 28062
HIMAWARI-9              
1 41836U 16064A   24126.72896741 -.00000277  00000+0  00000+0 0  9993
2 41836   0.0521  83.9825 0000788 327.9873 215.2839  1.00269468 27554
GOES 16                 
1 41866U 16071A   24126.20604859 -.00000250  00000+0  00000+0 0  9995
2 41866   0.0404 274.0711 0000493 155.8325 152.6315  1.00269791 27357
FENGYUN 4A              
1 41882U 16077A   24126.88159645 -.00000196  00000+0  00000+0 0  9990
2 41882   0.3518  84.0227 0008644 343.6464 200.3212  1.00263166 27236
CYGFM05                 
1 41884U 16078A   24126.57152790  .00008259  00000+0  31393-3 0  9993
2 41884  34.9538 210.6985 0012268 171.1346 188.9587 15.25977486409566
CYGFM04                 
1 41885U 16078B   24126.51956920  .00008571  00000+0  31716-3 0  9991
2 41885  34.9482 195.5034 0010238 195.2293 164.8115 15.26876504409643
CYGFM02                 
1 41886U 16078C   24126.87935409  .00009003  00000+0  32983-3 0  9998
2 41886  34.9530 195.5745 0013296 185.8936 174.1624 15.27164611409855
CYGFM01                 
1 41887U 16078D   24126.61128266  .00008617  00000+0  33038-3 0  9998
2 41887  34.9490 214.1811 0012677 161.8639 198.2530 15.25680808409503
CYGFM08                 
1 41888U 16078E   24126.59143062  .00009051  00000+0  33666-3 0  9997
2 41888  34.9476 202.9010 0013538 184.2527 175.8074 15.26660957409672
CYGFM07                 
1 41890U 16078G   24126.44677686  .00008697  00000+0  32079-3 0  9990
2 41890  34.9506 195.3988 0010139 193.0751 166.9702 15.26981864409648
CYGFM03                 
1 41891U 16078H   24126.54451738  .00008352  00000+0  30886-3 0  9992
2 41891  34.9502 195.9217 0011046 178.6538 181.4208 15.26896555409641
FENGYUN 3D              
1 43010U 17072A   24126.86863885  .00000151  00000+0  93534-4 0  9996
2 43010  98.9078  81.2833 0002618  92.4790 267.6685 14.19330369335419
NOAA 20 (JPSS-1)        
1 43013U 17073A   24126.84092846  .00000154  00000+0  93859-4 0  9992
2 43013  98.7044  65.4756 0001275  38.8694 321.2574 14.19575090334893
GOES 17                 
1 43226U 18022A   24126.56438359 -.00000092  00000+0  00000+0 0  9998
2 43226   0.0146  73.7759 0000533 303.0985 305.5151  1.00269716 22687
FENGYUN 2H              
1 43491U 18050A   24126.08695118 -.00000131  00000+0  00000+0 0  9992
2 43491   1.0317  87.5227 0001255  19.5071 227.0464  1.00272437 21680
METOP-C                 
1 43689U 18087A   24126.83759727  .00000210  00000+0  11588-3 0  9995
2 43689  98.7263 186.6025 0002023 177.7207 182.3979 14.21486387285102
GEO-KOMPSAT-2A          
1 43823U 18100A   24126.81438278 -.00000345  00000+0  00000+0 0  9997
2 43823   0.0240  87.8436 0001755 340.1496 217.6084  1.00269014 19910
METEOR-M2 2             
1 44387U 19038A   24126.84803659  .00000068  00000+0  49182-4 0  9996
2 44387  98.8241  95.9130 0002428  85.1853 274.9602 14.23878805251366
ARKTIKA-M 1             
1 47719U 21016A   24126.38420484  .00000156  00000+0  00000+0 0  9996
2 47719  63.1374 156.6643 6927945 268.7879  18.0162  2.00601725 23280
FENGYUN 3E              
1 49008U 21062A   24126.85136645  .00000038  00000+0  38418-4 0  9993
2 49008  98.7328 128.6992 0002337 126.9899 233.1491 14.19748111146984
GOES 18                 
1 51850U 22021A   24126.58104946  .00000095  00000+0  00000+0 0  9990
2 51850   0.0020 319.9306 0000315  40.4533 295.7275  1.00272300  8057
NOAA 21 (JPSS-2)        
1 54234U 22150A   24126.52228006  .00000148  00000+0  91142-4 0  9991
2 54234  98.7499  64.9207 0000648  83.8901 276.2349 14.19560490 76927
METEOSAT-12 (MTG-I1)    
1 54743U 22170C   24126.84945382 -.00000007  00000+0  00000+0 0  9999
2 54743   0.4504  31.1783 0001046  32.7022 105.8310  1.00275239  5224
TIANMU-1 03             
1 55973U 23039A   24126.77527227  .00010077  00000+0  40130-3 0  9995
2 55973  97.4637 277.5784 0011267 255.0770 104.9221 15.25381234 62393
TIANMU-1 04             
1 55974U 23039B   24126.82405451  .00010238  00000+0  40818-3 0  9998
2 55974  97.4558 277.2326 0008405 252.8531 107.1786 15.25364051 62394
TIANMU-1 05             
1 55975U 23039C   24126.87543037  .00009667  00000+0  38587-3 0  9991
2 55975  97.4607 277.5790 0004741 242.1923 117.8835 15.25362152 62397
TIANMU-1 06             
1 55976U 23039D   24126.85995114  .00009600  00000+0  38328-3 0  9997
2 55976  97.4622 277.6714 0004213 244.1135 115.9669 15.25357863 62390
METEOR-M2 3             
1 57166U 23091A   24126.88335155  .00000048  00000+0  40433-4 0  9992
2 57166  98.7159 181.9290 0002932 244.8732 115.2142 14.23887828 44603
TIANMU-1 07             
1 57399U 23101A   24126.87584603  .00005558  00000+0  28889-3 0  9996
2 57399  97.3665 185.2281 0004260 355.5806   4.5389 15.16462890 44012
TIANMU-1 08             
1 57400U 23101B   24126.84563691  .00006041  00000+0  31341-3 0  9995
2 57400  97.3654 185.0769 0006614 354.6509   5.4652 15.16481062 44001
TIANMU-1 09             
1 57401U 23101C   24126.82765226  .00006149  00000+0  31933-3 0  9998
2 57401  97.3610 184.9290 0006873 349.0709  11.0374 15.16438938 44006
TIANMU-1 10             
1 57402U 23101D   24126.85921948  .00005884  00000+0  30580-3 0  9999
2 57402  97.3689 185.1916 0009030 344.4829  15.6126 15.16418740 44005
FENGYUN 3F              
1 57490U 23111A   24126.80760746  .00000144  00000+0  88594-4 0  9992
2 57490  98.7711 196.3257 0001121 139.9392 220.1867 14.19803164 39256
TIANMU-1 11             
1 58645U 23205A   24126.84317640  .00004963  00000+0  27286-3 0  9997
2 58645  97.4065 153.0368 0011697 181.6795 178.4399 15.14476446 20104
TIANMU-1 12             
1 58646U 23205B   24126.85943882  .00005225  00000+0  28704-3 0  9990
2 58646  97.4052 152.9905 0010502 172.6607 187.4780 15.14489534 20096
TIANMU-1 13             
1 58647U 23205C   24126.82591394  .00005817  00000+0  31920-3 0  9996
2 58647  97.4081 152.9357 0010880 159.5120 200.6551 15.14478745 20088
TIANMU-1 14             
1 58648U 23205D   24126.87598536  .00005744  00000+0  31508-3 0  9998
2 58648  97.4007 152.8903 0011371 160.1325 200.0352 15.14488312 20099
TIANMU-1 19             
1 58660U 23208A   24126.87988038  .00006671  00000+0  36745-3 0  9993
2 58660  97.4065 240.3596 0010497 147.1227 213.0660 15.14294181 19769
TIANMU-1 20             
1 58661U 23208B   24126.83971186  .00006541  00000+0  35218-3 0  9996
2 58661  97.3995 240.2838 0011144 156.4720 203.7025 15.15103341 19769
TIANMU-1 21             
1 58662U 23208C   24126.85668784  .00007668  00000+0  40284-3 0  9996
2 58662  97.4033 240.4826 0010804 157.0332 203.1386 15.15925057 19772
TIANMU-1 22             
1 58663U 23208D   24126.82994040  .00005786  00000+0  31929-3 0  9996
2 58663  97.4051 240.3961 0006155 161.6323 198.5132 15.14309331 19762
TIANMU-1 15             
1 58700U 24004A   24126.87099965  .00005789  00000+0  31882-3 0  9991
2 58700  97.4622 308.7795 0010047 191.3581 168.7425 15.14364286 18362
TIANMU-1 16             
1 58701U 24004B   24126.85482485  .00006397  00000+0  35159-3 0  9990
2 58701  97.4548 308.6823 0009887 197.3034 162.7862 15.14397866 18369
